STARLINK-1588_new
1 16118C 20057B   21326.10922919  .00003398  00000-0  22773-3 0  3262
2 16118  53.0503 158.2594 0001783  80.7373 224.1741 15.06384066    10
STARLINK-1588_old
1 26118C 20057B   21325.11392345  .00003531  00000-0  23665-3 0  3255
2 26118  53.0506 162.7276 0001757  79.2737 225.1179 15.06382476    17
